[{"OBJECT_NAME":"ASNARO","OBJECT_ID":"2014-070A","EPOCH":"2026-03-09T22:08:57.436800","MEAN_MOTION":15.19795737,"ECCENTRICITY":0.00075314,"INCLINATION":97.3509,"RA_OF_ASC_NODE":147.6802,"ARG_OF_PERICENTER":140.927,"MEAN_ANOMALY":219.2511,"EPHEMERIS_TYPE":0,"CLASSIFICATION_TYPE":"U","NORAD_CAT_ID":40298,"ELEMENT_SET_NO":999,"REV_AT_EPOCH":62893,"BSTAR":0.00030880192,"MEAN_MOTION_DOT":6.55e-5,"MEAN_MOTION_DDOT":0},{"OBJECT_NAME":"TRANSPORTER-13 OBJECT M","OBJECT_ID":"2025-052M","EPOCH":"2026-03-09T16:54:10.026144","MEAN_MOTION":15.21138155,"ECCENTRICITY":0.00049134,"INCLINATION":97.4005,"RA_OF_ASC_NODE":322.6064,"ARG_OF_PERICENTER":116.6212,"MEAN_ANOMALY":243.5528,"EPHEMERIS_TYPE":0,"CLASSIFICATION_TYPE":"U","NORAD_CAT_ID":63221,"ELEMENT_SET_NO":999,"REV_AT_EPOCH":5471,"BSTAR":0.00025482264,"MEAN_MOTION_DOT":5.606e-5,"MEAN_MOTION_DDOT":0}]
